{
  "type": "FeatureCollection",
  "features": [
    {
      "type": "Feature",
      "properties": {
        "norad_id": 66635,
        "name": "STARLINK-35955",
        "group": "last-30-days",
        "lat": 46.08841874706785,
        "lon": -11.876203124347185,
        "alt_km": 300.5302270632592,
        "timestamp": "2025-12-06T03:35:00.474843+00:00",
        "meta_object_name": "STARLINK-35955",
        "meta_object_id": "2025-271U",
        "meta_epoch": "2025-12-05T04:24:09.717120",
        "meta_mean_motion": 15.81245571,
        "meta_eccentricity": 0.00114922,
        "meta_inclination": 53.1523,
        "meta_ra_of_asc_node": 224.1641,
        "meta_arg_of_pericenter": 344.8155,
        "meta_mean_anomaly": 15.2521,
        "meta_ephemeris_type": 0,
        "meta_classification_type": "U",
        "meta_norad_cat_id": 66635,
        "meta_element_set_no": 999,
        "meta_rev_at_epoch": 302,
        "meta_bstar": 0.01841904,
        "meta_mean_motion_dot": 0.04351412,
        "meta_mean_motion_ddot": 0,
        "tle_line1": "1 66635U 25271U   25339.18344580  .04351412  00000+0  18419-1 0  9991",
        "tle_line2": "2 66635  53.1523 224.1641 0011492 344.8155  15.2521 15.81245571  3024"
      },
      "geometry": {
        "type": "Point",
        "coordinates": [
          -11.876203124347185,
          46.08841874706785
        ]
      }
    },
    {
      "type": "Feature",
      "properties": {
        "norad_id": 66636,
        "name": "STARLINK-35968",
        "group": "last-30-days",
        "lat": 50.08341958055328,
        "lon": -24.373511524313695,
        "alt_km": 319.0908619030406,
        "timestamp": "2025-12-06T03:35:00.474854+00:00",
        "meta_object_name": "STARLINK-35968",
        "meta_object_id": "2025-271V",
        "meta_epoch": "2025-12-05T04:23:30.283296",
        "meta_mean_motion": 15.811936,
        "meta_eccentricity": 0.00086082,
        "meta_inclination": 53.1548,
        "meta_ra_of_asc_node": 224.1574,
        "meta_arg_of_pericenter": 227.9075,
        "meta_mean_anomaly": 132.1217,
        "meta_ephemeris_type": 0,
        "meta_classification_type": "U",
        "meta_norad_cat_id": 66636,
        "meta_element_set_no": 999,
        "meta_rev_at_epoch": 302,
        "meta_bstar": 0.0039612228,
        "meta_mean_motion_dot": 0.00879132,
        "meta_mean_motion_ddot": 0,
        "tle_line1": "1 66636U 25271V   25339.18298939  .00879132  00000+0  39612-2 0  9997",
        "tle_line2": "2 66636  53.1548 224.1574 0008608 227.9075 132.1217 15.81193600  3020"
      },
      "geometry": {
        "type": "Point",
        "coordinates": [
          -24.373511524313695,
          50.08341958055328
        ]
      }
    },
    {
      "type": "Feature",
      "properties": {
        "norad_id": 66637,
        "name": "STARLINK-35953",
        "group": "last-30-days",
        "lat": -42.00200869913885,
        "lon": 81.61929502313113,
        "alt_km": 112.92720874435781,
        "timestamp": "2025-12-06T03:35:00.474864+00:00",
        "meta_object_name": "STARLINK-35953",
        "meta_object_id": "2025-271W",
        "meta_epoch": "2025-12-04T22:18:59.752800",
        "meta_mean_motion": 15.86335951,
        "meta_eccentricity": 0.0030581,
        "meta_inclination": 53.1554,
        "meta_ra_of_asc_node": 225.4243,
        "meta_arg_of_pericenter": 260.8528,
        "meta_mean_anomaly": 98.9037,
        "meta_ephemeris_type": 0,
        "meta_classification_type": "U",
        "meta_norad_cat_id": 66637,
        "meta_element_set_no": 999,
        "meta_rev_at_epoch": 298,
        "meta_bstar": 0.039237,
        "meta_mean_motion_dot": 0.07541591,
        "meta_mean_motion_ddot": 0.099335,
        "tle_line1": "1 66637U 25271W   25338.92985825  .07541591  99335-1  39237-1 0  9991",
        "tle_line2": "2 66637  53.1554 225.4243 0030581 260.8528  98.9037 15.86335951  2984"
      },
      "geometry": {
        "type": "Point",
        "coordinates": [
          81.61929502313113,
          -42.00200869913885
        ]
      }
    },
    {
      "type": "Feature",
      "properties": {
        "norad_id": 66638,
        "name": "STARLINK-35972",
        "group": "last-30-days",
        "lat": 53.1199414249824,
        "lon": -48.789952802447836,
        "alt_km": 329.1739169876082,
        "timestamp": "2025-12-06T03:35:00.474874+00:00",
        "meta_object_name": "STARLINK-35972",
        "meta_object_id": "2025-271X",
        "meta_epoch": "2025-12-05T04:24:01.697472",
        "meta_mean_motion": 15.78483302,
        "meta_eccentricity": 7.392e-05,
        "meta_inclination": 53.1548,
        "meta_ra_of_asc_node": 224.1592,
        "meta_arg_of_pericenter": 112.1161,
        "meta_mean_anomaly": 247.994,
        "meta_ephemeris_type": 0,
        "meta_classification_type": "U",
        "meta_norad_cat_id": 66638,
        "meta_element_set_no": 999,
        "meta_rev_at_epoch": 302,
        "meta_bstar": -0.0021743728,
        "meta_mean_motion_dot": -0.00369388,
        "meta_mean_motion_ddot": 0,
        "tle_line1": "1 66638U 25271X   25339.18335298 -.00369388  00000+0 -21744-2 0  9995",
        "tle_line2": "2 66638  53.1548 224.1592 0000739 112.1161 247.9940 15.78483302  3025"
      },
      "geometry": {
        "type": "Point",
        "coordinates": [
          -48.789952802447836,
          53.1199414249824
        ]
      }
    },
    {
      "type": "Feature",
      "properties": {
        "norad_id": 66639,
        "name": "STARLINK-35908",
        "group": "last-30-days",
        "lat": 27.589569579139987,
        "lon": 16.1561012511532,
        "alt_km": 312.2177464695933,
        "timestamp": "2025-12-06T03:35:00.474885+00:00",
        "meta_object_name": "STARLINK-35908",
        "meta_object_id": "2025-271Y",
        "meta_epoch": "2025-12-04T02:34:25.508352",
        "meta_mean_motion": 15.84226755,
        "meta_eccentricity": 0.00097052,
        "meta_inclination": 53.1556,
        "meta_ra_of_asc_node": 229.5367,
        "meta_arg_of_pericenter": 335.6046,
        "meta_mean_anomaly": 24.4518,
        "meta_ephemeris_type": 0,
        "meta_classification_type": "U",
        "meta_norad_cat_id": 66639,
        "meta_element_set_no": 999,
        "meta_rev_at_epoch": 285,
        "meta_bstar": 0.0030756132,
        "meta_mean_motion_dot": 0.00777445,
        "meta_mean_motion_ddot": 0,
        "tle_line1": "1 66639U 25271Y   25338.10723968  .00777445  00000+0  30756-2 0  9990",
        "tle_line2": "2 66639  53.1556 229.5367 0009705 335.6046  24.4518 15.84226755  2853"
      },
      "geometry": {
        "type": "Point",
        "coordinates": [
          16.1561012511532,
          27.589569579139987
        ]
      }
    },
    {
      "type": "Feature",
      "properties": {
        "norad_id": 66640,
        "name": "STARLINK-35921",
        "group": "last-30-days",
        "lat": 45.87100713867326,
        "lon": -11.340003219714264,
        "alt_km": 317.91117584748645,
        "timestamp": "2025-12-06T03:35:00.474895+00:00",
        "meta_object_name": "STARLINK-35921",
        "meta_object_id": "2025-271Z",
        "meta_epoch": "2025-12-04T07:07:23.950272",
        "meta_mean_motion": 15.81318878,
        "meta_eccentricity": 0.0004963,
        "meta_inclination": 53.1562,
        "meta_ra_of_asc_node": 228.5854,
        "meta_arg_of_pericenter": 9.2257,
        "meta_mean_anomaly": 350.8856,
        "meta_ephemeris_type": 0,
        "meta_classification_type": "U",
        "meta_norad_cat_id": 66640,
        "meta_element_set_no": 999,
        "meta_rev_at_epoch": 288,
        "meta_bstar": 0.0015698,
        "meta_mean_motion_dot": 0.00327985,
        "meta_mean_motion_ddot": 0,
        "tle_line1": "1 66640U 25271Z   25338.29680498  .00327985  00000+0  15698-2 0  9990",
        "tle_line2": "2 66640  53.1562 228.5854 0004963   9.2257 350.8856 15.81318878  2880"
      },
      "geometry": {
        "type": "Point",
        "coordinates": [
          -11.340003219714264,
          45.87100713867326
        ]
      }
    },
    {
      "type": "Feature",
      "properties": {
        "norad_id": 66641,
        "name": "STARLINK-35923",
        "group": "last-30-days",
        "lat": 36.83989332662554,
        "lon": 5.076154798199907,
        "alt_km": 329.60239024287694,
        "timestamp": "2025-12-06T03:35:00.474907+00:00",
        "meta_object_name": "STARLINK-35923",
        "meta_object_id": "2025-271AA",
        "meta_epoch": "2025-12-05T05:49:45.867936",
        "meta_mean_motion": 15.82828724,
        "meta_eccentricity": 0.00292539,
        "meta_inclination": 53.1564,
        "meta_ra_of_asc_node": 223.819,
        "meta_arg_of_pericenter": 299.3636,
        "meta_mean_anomaly": 60.4467,
        "meta_ephemeris_type": 0,
        "meta_classification_type": "U",
        "meta_norad_cat_id": 66641,
        "meta_element_set_no": 999,
        "meta_rev_at_epoch": 303,
        "meta_bstar": 0.0053548979,
        "meta_mean_motion_dot": 0.0135013,
        "meta_mean_motion_ddot": 0,
        "tle_line1": "1 66641U 25271AA  25339.24289199  .01350130  00000+0  53549-2 0  9996",
        "tle_line2": "2 66641  53.1564 223.8190 0029253 299.3636  60.4467 15.82828724  3033"
      },
      "geometry": {
        "type": "Point",
        "coordinates": [
          5.076154798199907,
          36.83989332662554
        ]
      }
    }
  ]
}